CRE (WAAS/PRN 138)      
1 28868U 05036A   23055.53989405 -.00000083  00000+0  00000+0 0  9994
2 28868   1.2010  91.3055 0002124 297.3722 212.5157  1.00272349 34336
IOR-W (EGNOS/PRN 126)   
1 28899U 05044A   23055.49771532  .00000001  00000+0  00000+0 0  9991
2 28899   3.7068  39.5137 0002758 297.5767  60.0705  1.00272065 63397
QZS-1 (QZSS/PRN 183)    
1 37158U 10045A   23052.71527778 -.00000207  00000+0  00000+0 0  9998
2 37158  42.6030 129.9588 0741847 269.6111 142.1282  1.00307586 45593
GSAT-8 (GAGAN/PRN 127)  
1 37605U 11022A   23055.57271722  .00000075  00000+0  00000+0 0  9995
2 37605   0.0184 130.4505 0007204 155.0777 129.9081  1.00273816 43127
LUCH 5A (SDCM/PRN 140)  
1 37951U 11074B   23055.62298987 -.00000058  00000+0  00000+0 0  9996
2 37951   5.6538  93.0241 0002518 249.0833 203.2905  1.00270770 41075
SES-5 (EGNOS/PRN 136)   
1 38652U 12036A   23055.46854981  .00000024  00000+0  00000+0 0  9990
2 38652   0.0503 301.4165 0001984  23.2293   3.0563  1.00272434 38941
GSAT-10 (GAGAN/PRN 128) 
1 38779U 12051B   23055.51229962 -.00000174  00000+0  00000+0 0  9995
2 38779   0.0851 273.1821 0003300   1.0341 147.3046  1.00270904 38176
LUCH 5B (SDCM/PRN 125)  
1 38977U 12061A   23055.32896646 -.00000145  00000+0  00000+0 0  9992
2 38977   7.8359  60.6881 0000124 207.7482 347.5614  1.00270852 38055
ASTRA 5B (EGNOS/PRN 123)
1 39617U 14011B   23055.28868718  .00000144  00000+0  00000+0 0  9993
2 39617   0.0661 305.9024 0003174  23.1160 320.2523  1.00271370 32544
LUCH 5V (SDCM/PRN 141)  
1 39727U 14023A   23055.53660289 -.00000278  00000+0  00000+0 0  9998
2 39727   2.1085  77.4245 0002534 275.2654  89.3510  1.00271874 32247
GSAT-15 (GAGAN/PRN 139) 
1 41028U 15065A   23055.62965932 -.00000267  00000+0  00000+0 0  9993
2 41028   0.1164 272.2883 0000471  21.0990 180.9810  1.00271016 26748
E 117 W B (WAAS/PRN 131)
1 41589U 16038B   23053.33868543 -.00000025  00000+0  00000+0 0  9994
2 41589   0.0068 341.3003 0000174   4.1572 171.4373  1.00272460 24530
SES-15 (WAAS/PRN 133)   
1 42709U 17026A   23055.52625444  .00000051  00000+0  00000+0 0  9999
2 42709   0.0282   6.9147 0000368 310.0631 257.4254  1.00270145 22029
QZS-2 (QZSS/PRN 184)    
1 42738U 17028A   23054.42410410 -.00000152  00000+0  00000+0 0  9999
2 42738  41.3569 260.6040 0747891 270.1377 276.1894  1.00267981 21010
QZS-3 (QZSS/PRN 189)    
1 42917U 17048A   23055.61385715 -.00000358  00000+0  00000+0 0  9999
2 42917   0.0588 160.4490 0002696 177.1445 164.6212  1.00271102 20145
QZS-4 (QZSS/PRN 185)    
1 42965U 17062A   23055.61185854 -.00000349  00000+0  00000+0 0  9990
2 42965  40.7006 358.8811 0749146 269.4761 245.1171  1.00285777 19698
BEIDOU-3 G1 (PRN 130)   
1 43683U 18085A   23055.62366736 -.00000288  00000+0  00000+0 0  9997
2 43683   1.1331 141.0251 0001840  30.9174 346.8341  1.00269156 15933
BEIDOU-3 G2 (PRN 144)   
1 45344U 20017A   23055.35813428 -.00000150  00000+0  00000+0 0  9994
2 45344   1.9887   5.7049 0001026   4.5656 352.6213  1.00270555 11150
BEIDOU-3 G3 (PRN 143)   
1 45807U 20040A   23055.56993852 -.00000363  00000+0  00000+0 0  9993
2 45807   0.9015 316.2558 0007739 337.3436 176.2578  1.00269251  9951
GALAXY 30 (WAAS/PRN 135)
1 46114U 20056C   23055.52584027  .00000028  00000+0  00000+0 0  9995
2 46114   0.0230 133.4652 0001902 212.5625 232.4098  1.00271720  9177
